[{"OBJECT_NAME":"STARLINK-5526","OBJECT_ID":"2023-064BA","EPOCH":"2026-03-09T11:31:27.690240","MEAN_MOTION":14.98328014,"ECCENTRICITY":0.00030473,"INCLINATION":69.9993,"RA_OF_ASC_NODE":104.8865,"ARG_OF_PERICENTER":264.999,"MEAN_ANOMALY":95.0821,"EPHEMERIS_TYPE":0,"CLASSIFICATION_TYPE":"U","NORAD_CAT_ID":56496,"ELEMENT_SET_NO":999,"REV_AT_EPOCH":15620,"BSTAR":-3.1848949e-5,"MEAN_MOTION_DOT":-4.73e-6,"MEAN_MOTION_DDOT":0},{"OBJECT_NAME":"KUIPER-00050","OBJECT_ID":"2025-134L","EPOCH":"2026-03-09T16:37:17.406912","MEAN_MOTION":14.97208204,"ECCENTRICITY":0.00043267,"INCLINATION":51.8888,"RA_OF_ASC_NODE":211.9413,"ARG_OF_PERICENTER":323.7107,"MEAN_ANOMALY":36.3569,"EPHEMERIS_TYPE":0,"CLASSIFICATION_TYPE":"U","NORAD_CAT_ID":64510,"ELEMENT_SET_NO":999,"REV_AT_EPOCH":4037,"BSTAR":0.00054272515,"MEAN_MOTION_DOT":6.094e-5,"MEAN_MOTION_DDOT":0}]
